NORAD_CAT_ID,OBJECT_NAME,OBJECT_TYPE,EPOCH,MEAN_MOTION,ECCENTRICITY,INCLINATION,RA_OF_ASC_NODE,ARG_OF_PERICENTER,MEAN_ANOMALY,BSTAR,MEAN_MOTION_DOT,MEAN_MOTION_DDOT,TLE_LINE0,TLE_LINE1,TLE_LINE2,SEMIMAJOR_AXIS,PERIOD,APOGEE,PERIGEE,DECAYED
54077.0,STARLINK-5171,PAYLOAD,2023-10-16 06:58:55,15.08854282,0.0001397,53.2161,293.6165,91.0475,269.0677,0.00034563,5.219e-05,0.0,0 STARLINK-5171,1 54077U 22136AC  23289.29091991  .00005219  00000-0  34563-3 0  9992,2 54077  53.2161 293.6165 0001397  91.0475 269.0677 15.08854282 55450,6917.837,95.437,540.668,538.735,0.0
54077.0,STARLINK-5171,PAYLOAD,2023-10-17 10:00:28,15.08848089,0.0001544,53.217,288.5587,97.9429,262.1738,0.00029048,4.339e-05,0.0,0 STARLINK-5171,1 54077U 22136AC  23290.41700225  .00004339  00000-0  29048-3 0  9999,2 54077  53.2170 288.5587 0001544  97.9429 262.1738 15.08848089 55628,6917.856,95.437,540.789,538.653,0.0
54077.0,STARLINK-5171,PAYLOAD,2023-10-18 00:18:57,15.08838798,0.0001521,53.2174,285.8815,99.076,261.0404,-4.9839e-05,-1.081e-05,0.0,0 STARLINK-5171,1 54077U 22136AC  23291.01316521 -.00001081  00000-0 -49839-4 0  9992,2 54077  53.2174 285.8815 0001521  99.0760 261.0404 15.08838798 55233,6917.884,95.438,540.801,538.697,0.0
54077.0,STARLINK-5171,PAYLOAD,2023-10-18 06:40:29,15.08844358,0.0001382,53.217,284.6935,89.8306,270.2844,2.7307e-05,1.47e-06,0.0,0 STARLINK-5171,1 54077U 22136AC  23291.27812418  .00000147  00000-0  27307-4 0  9992,2 54077  53.2170 284.6935 0001382  89.8306 270.2844 15.08844358 55753,6917.867,95.437,540.688,538.776,0.0
54077.0,STARLINK-5171,PAYLOAD,2023-10-19 06:31:16,15.08859526,0.000137,53.2163,280.2325,93.012,267.1029,0.0003398,5.127e-05,0.0,0 STARLINK-5171,1 54077U 22136AC  23292.27171558  .00005127  00000-0  33980-3 0  9992,2 54077  53.2163 280.2325 0001370  93.0120 267.1029 15.08859526 55908,6917.821,95.436,540.633,538.738,0.0
54077.0,STARLINK-5171,PAYLOAD,2023-10-19 16:03:35,15.08847945,0.0001287,53.2166,278.4469,79.028,281.0857,0.00020652,3.001e-05,0.0,0 STARLINK-5171,1 54077U 22136AC  23292.66916027  .00003001  00000-0  20652-3 0  9994,2 54077  53.2166 278.4469 0001287  79.0280 281.0857 15.08847945 55969,6917.856,95.437,540.611,538.831,0.0
54077.0,STARLINK-5171,PAYLOAD,2023-10-20 04:46:41,15.08833302,0.0001731,53.218,276.0724,98.0883,262.0306,7.0347e-06,-1.76e-06,0.0,0 STARLINK-5171,1 54077U 22136AC  23293.19909046 -.00000176  00000-0  70347-5 0  9995,2 54077  53.2180 276.0724 0001731  98.0883 262.0306 15.08833302 56047,6917.901,95.438,540.963,538.568,0.0
54077.0,STARLINK-5171,PAYLOAD,2023-10-20 06:22:04,15.08835355,0.0001638,53.2181,275.7753,93.311,266.807,4.5249e-05,4.32e-06,0.0,0 STARLINK-5171,1 54077U 22136AC  23293.26533028  .00000432  00000-0  45249-4 0  9992,2 54077  53.2181 275.7753 0001638  93.3110 266.8070 15.08835355 55570,6917.895,95.438,540.893,538.626,0.0
54077.0,STARLINK-5171,PAYLOAD,2023-10-21 07:48:15,15.08837748,0.0001719,53.2175,271.016,82.4256,277.6932,0.00015065,2.11e-05,0.0,0 STARLINK-5171,1 54077U 22136AC  23294.32517446  .00002110  00000-0  15065-3 0  9993,2 54077  53.2175 271.0160 0001719  82.4256 277.6932 15.08837748 56211,6917.887,95.438,540.941,538.563,0.0
54077.0,STARLINK-5171,PAYLOAD,2023-10-21 22:06:43,15.08846532,0.00015,53.2166,268.3394,90.5651,269.5513,0.00052744,8.118e-05,0.0,0 STARLINK-5171,1 54077U 22136AC  23294.92133158  .00008118  00000-0  52744-3 0  9992,2 54077  53.2166 268.3394 0001500  90.5651 269.5513 15.08846532 55828,6917.86,95.437,540.763,538.688,0.0
54077.0,STARLINK-5171,PAYLOAD,2023-10-22 04:28:14,15.08864034,0.0001485,53.2156,267.152,87.1368,272.9794,0.00069882,0.00010858,0.0,0 STARLINK-5171,1 54077U 22136AC  23295.18628433  .00010858  00000-0  69882-3 0  9991,2 54077  53.2156 267.1520 0001485  87.1368 272.9794 15.08864034 56348,6917.807,95.436,540.699,538.645,0.0
54077.0,STARLINK-5171,PAYLOAD,2023-10-22 06:03:37,15.08869427,0.0001536,53.2162,266.8546,87.0468,273.07,0.00081735,0.00012754,0.0,0 STARLINK-5171,1 54077U 22136AC  23295.25252256  .00012754  00000-0  81735-3 0  9993,2 54077  53.2162 266.8546 0001536  87.0468 273.0700 15.08869427 55873,6917.79,95.436,540.718,538.593,0.0
54077.0,STARLINK-5171,PAYLOAD,2023-10-22 15:35:56,15.08848829,0.0001884,53.2158,265.0708,73.6595,286.4604,-2.3184e-05,-6.57e-06,0.0,0 STARLINK-5171,1 54077U 22136AC  23295.64996520 -.00000657  00000-0 -23184-4 0  9991,2 54077  53.2158 265.0708 0001884  73.6595 286.4604 15.08848829 56412,6917.853,95.437,541.022,538.415,0.0
54077.0,STARLINK-5171,PAYLOAD,2023-10-23 04:19:02,15.08832865,0.0001467,53.2158,262.6916,76.8578,283.2578,-0.00017423,-3.059e-05,0.0,0 STARLINK-5171,1 54077U 22136AC  23296.17989048 -.00003059  00000-0 -17423-3 0  9994,2 54077  53.2158 262.6916 0001467  76.8578 283.2578 15.08832865 56495,6917.902,95.438,540.782,538.752,0.0
54077.0,STARLINK-5171,PAYLOAD,2023-10-24 04:09:49,15.08854051,0.000215,53.2185,258.2312,48.4031,311.7145,0.0010508,0.00016482,0.0,0 STARLINK-5171,1 54077U 22136AC  23297.17349464  .00016482  00000-0  10508-2 0  9995,2 54077  53.2185 258.2312 0002150  48.4031 311.7145 15.08854051 56640,6917.837,95.437,541.19,538.215,0.0
54077.0,STARLINK-5171,PAYLOAD,2023-10-24 07:20:36,15.08858004,0.000169,53.2178,257.6365,65.0458,295.071,0.00098952,0.00015503,0.0,0 STARLINK-5171,1 54077U 22136AC  23297.30597410  .00015503  00000-0  98952-3 0  9999,2 54077  53.2178 257.6365 0001690  65.0458 295.0710 15.08858004 56182,6917.825,95.436,540.859,538.521,0.0
54077.0,STARLINK-5171,PAYLOAD,2023-10-25 07:11:22,15.08854234,0.000172,53.2179,253.1738,82.3976,277.7212,0.00053307,8.209e-05,0.0,0 STARLINK-5171,1 54077U 22136AC  23298.29956924  .00008209  00000-0  53307-3 0  9997,2 54077  53.2179 253.1738 0001720  82.3976 277.7212 15.08854234 56814,6917.837,95.437,540.892,538.512,0.0
54077.0,STARLINK-5171,PAYLOAD,2023-10-26 03:51:23,15.08853392,0.0001609,53.2175,249.3094,94.4091,265.7085,0.00079376,0.00012372,0.0,0 STARLINK-5171,1 54077U 22136AC  23299.16069011  .00012372  00000-0  79376-3 0  9996,2 54077  53.2175 249.3094 0001609  94.4091 265.7085 15.08853392 56943,6917.839,95.437,540.818,538.591,0.0
54077.0,STARLINK-5171,PAYLOAD,2023-10-26 07:02:09,15.08859984,0.0001582,53.2171,248.7141,95.6039,264.5133,0.00097439,0.00015262,0.0,0 STARLINK-5171,1 54077U 22136AC  23299.29316845  .00015262  00000-0  97439-3 0  9991,2 54077  53.2171 248.7141 0001582  95.6039 264.5133 15.08859984 56483,6917.819,95.436,540.779,538.59,0.0
54077.0,STARLINK-5171,PAYLOAD,2023-10-27 03:42:10,15.08852289,0.0001451,53.216,244.8481,99.1525,260.9631,0.00054587,8.413e-05,0.0,0 STARLINK-5171,1 54077U 22136AC  23300.15428760  .00008413  00000-0  54587-3 0  9996,2 54077  53.2160 244.8481 0001451  99.1525 260.9631 15.08852289 57091,6917.843,95.437,540.712,538.704,0.0
54077.0,STARLINK-5171,PAYLOAD,2023-10-27 13:14:29,15.08846353,0.0001425,53.2165,243.064,87.7707,272.3448,0.00050352,7.736e-05,0.0,0 STARLINK-5171,1 54077U 22136AC  23300.55172856  .00007736  00000-0  50352-3 0  9995,2 54077  53.2165 243.0640 0001425  87.7707 272.3448 15.08846353 57155,6917.861,95.437,540.712,538.74,0.0
54077.0,STARLINK-5171,PAYLOAD,2023-10-27 21:11:25,15.0882332,0.0001512,53.2165,241.5771,84.0969,276.0195,-5.8735e-05,-1.222e-05,0.0,0 STARLINK-5171,1 54077U 22136AC  23300.88293461 -.00001222  00000-0 -58735-4 0  9997,2 54077  53.2165 241.5771 0001512  84.0969 276.0195 15.08823320 56721,6917.931,95.439,540.842,538.75,0.0
54077.0,STARLINK-5171,PAYLOAD,2023-10-28 00:22:11,15.08827108,0.0001369,53.2173,240.983,85.4143,274.7005,0.00026368,3.91e-05,0.0,0 STARLINK-5171,1 54077U 22136AC  23301.01541530  .00003910  00000-0  26368-3 0  9996,2 54077  53.2173 240.9830 0001369  85.4143 274.7005 15.08827108 57227,6917.92,95.438,540.732,538.838,0.0
54077.0,STARLINK-5171,PAYLOAD,2023-10-28 13:05:17,15.08840642,0.0001504,53.2165,238.6046,75.7486,284.3673,0.00090765,0.00014187,0.0,0 STARLINK-5171,1 54077U 22136AC  23301.54533916  .00014187  00000-0  90765-3 0  9993,2 54077  53.2165 238.6046 0001504  75.7486 284.3673 15.08840642 56825,6917.878,95.438,540.784,538.703,0.0
54077.0,STARLINK-5171,PAYLOAD,2023-10-29 03:23:45,15.08849425,0.0001765,53.2166,235.9287,78.7283,281.3907,0.00080499,0.0001255,0.0,0 STARLINK-5171,1 54077U 22136AC  23302.14150001  .00012550  00000-0  80499-3 0  9995,2 54077  53.2166 235.9287 0001765  78.7283 281.3907 15.08849425 57398,6917.852,95.437,540.938,538.496,0.0
54077.0,STARLINK-5171,PAYLOAD,2023-10-29 12:56:04,15.08844565,0.0001476,53.2169,234.1451,88.9116,271.2045,0.00040927,6.232e-05,0.0,0 STARLINK-5171,1 54077U 22136AC  23302.53893943  .00006232  00000-0  40927-3 0  9999,2 54077  53.2169 234.1451 0001476  88.9116 271.2045 15.08844565 57450,6917.866,95.437,540.753,538.71,0.0
54077.0,STARLINK-5171,PAYLOAD,2023-10-30 12:46:51,15.08834926,0.0002323,53.2185,229.6823,82.9669,277.1588,2.7232e-05,1.45e-06,0.0,0 STARLINK-5171,1 54077U 22136AC  23303.53254461  .00000145  00000-0  27232-4 0  9998,2 54077  53.2185 229.6823 0002323  82.9669 277.1588 15.08834926 57603,6917.896,95.438,541.368,538.154,0.0
54077.0,STARLINK-5171,PAYLOAD,2023-10-31 12:37:39,15.08839777,0.0001643,53.2186,225.2218,94.406,265.712,0.00062388,9.655e-05,0.0,0 STARLINK-5171,1 54077U 22136AC  23304.52614778  .00009655  00000-0  62388-3 0  9994,2 54077  53.2186 225.2218 0001643  94.4060 265.7120 15.08839777 57278,6917.881,95.438,540.883,538.609,0.0
54077.0,STARLINK-5171,PAYLOAD,2023-10-31 18:59:11,15.08844189,0.0001639,53.2186,224.0328,93.152,266.9659,0.00062223,9.63e-05,0.0,0 STARLINK-5171,1 54077U 22136AC  23304.79110757  .00009630  00000-0  62223-3 0  9992,2 54077  53.2186 224.0328 0001639  93.1520 266.9659 15.08844189 57799,6917.868,95.437,540.866,538.599,0.0
54077.0,STARLINK-5171,PAYLOAD,2023-10-31 22:09:57,15.08849434,0.0001542,53.2172,223.4396,88.8562,271.2607,0.00063446,9.826e-05,0.0,0 STARLINK-5171,1 54077U 22136AC  23304.92358595  .00009826  00000-0  63446-3 0  9996,2 54077  53.2172 223.4396 0001542  88.8562 271.2607 15.08849434 57332,6917.852,95.437,540.783,538.65,0.0
